NORAD_CAT_ID,OBJECT_NAME,OBJECT_TYPE,EPOCH,MEAN_MOTION,ECCENTRICITY,INCLINATION,RA_OF_ASC_NODE,ARG_OF_PERICENTER,MEAN_ANOMALY,BSTAR,MEAN_MOTION_DOT,MEAN_MOTION_DDOT,TLE_LINE0,TLE_LINE1,TLE_LINE2,SEMIMAJOR_AXIS,PERIOD,APOGEE,PERIGEE,DECAYED
51465.0,STARLINK-3401,PAYLOAD,2022-12-16 13:11:08,15.08848342,0.0003302,53.2154,172.5001,45.5084,314.6177,0.0001519,2.13e-05,0.0,0 STARLINK-3401,1 51465U 22010K   22350.54940499  .00002130  00000-0  15190-3 0  9997,2 51465  53.2154 172.5001 0003302  45.5084 314.6177 15.08848342 49312,6917.855,95.437,542.004,537.436,0.0
51465.0,STARLINK-3401,PAYLOAD,2022-12-16 21:08:04,15.08838469,0.0003323,53.2155,171.0131,45.2184,314.9078,-1.0289e-05,-4.53e-06,0.0,0 STARLINK-3401,1 51465U 22010K   22350.88060883 -.00000453  00000-0 -10289-4 0  9997,2 51465  53.2155 171.0131 0003323  45.2184 314.9078 15.08838469 49369,6917.885,95.438,542.049,537.451,0.0
51465.0,STARLINK-3401,PAYLOAD,2022-12-17 13:01:56,15.08841085,0.0003323,53.2161,168.0392,46.8198,313.3072,4.4459e-05,4.19e-06,0.0,0 STARLINK-3401,1 51465U 22010K   22351.54301044  .00000419  00000-0  44459-4 0  9994,2 51465  53.2161 168.0392 0003323  46.8198 313.3072 15.08841085 49469,6917.877,95.437,542.0409999999998,537.443,0.0
51465.0,STARLINK-3401,PAYLOAD,2022-12-17 20:58:51,15.08844438,0.0003361,53.2163,166.5524,46.7037,313.4235,3.2332e-05,2.26e-06,0.0,0 STARLINK-3401,1 51465U 22010K   22351.87420768  .00000226  00000-0  32332-4 0  9998,2 51465  53.2163 166.5524 0003361  46.7037 313.4235 15.08844438 49517,6917.8669999999975,95.437,542.057,537.4069999999998,0.0
51465.0,STARLINK-3401,PAYLOAD,2022-12-18 04:55:46,15.08847479,0.0003331,53.2163,165.0656,47.4092,312.7181,3.2956e-05,2.36e-06,0.0,0 STARLINK-3401,1 51465U 22010K   22352.20540470  .00000236  00000-0  32956-4 0  9992,2 51465  53.2163 165.0656 0003331  47.4092 312.7181 15.08847479 49568,6917.858,95.437,542.0269999999998,537.418,0.0
51465.0,STARLINK-3401,PAYLOAD,2022-12-18 20:49:39,15.08830674,0.0003285,53.2165,162.0919,47.9386,312.1885,2.2548e-05,7e-07,0.0,0 STARLINK-3401,1 51465U 22010K   22352.86781519  .00000070  00000-0  22548-4 0  9997,2 51465  53.2165 162.0919 0003285  47.9386 312.1885 15.08830674 49663,6917.909000000002,95.438,542.0459999999998,537.501,0.0
51465.0,STARLINK-3401,PAYLOAD,2022-12-19 04:46:34,15.08834595,0.0003294,53.2165,160.6052,48.4824,311.645,3.2251999999999995e-05,2.24e-06,0.0,0 STARLINK-3401,1 51465U 22010K   22353.19901433  .00000224  00000-0  32252-4 0  9997,2 51465  53.2165 160.6052 0003294  48.4824 311.6450 15.08834595 49712,6917.897,95.438,542.0409999999998,537.4830000000002,0.0
51465.0,STARLINK-3401,PAYLOAD,2022-12-19 20:40:25,15.08842479,0.0003304,53.2166,157.6311,49.8435,310.2846,5.3952e-05,5.700000000000001e-06,0.0,0 STARLINK-3401,1 51465U 22010K   22353.86140931  .00000570  00000-0  53952-4 0  9993,2 51465  53.2166 157.6311 0003304  49.8435 310.2846 15.08842479 49817,6917.873000000001,95.437,542.023,537.452,0.0
51465.0,STARLINK-3401,PAYLOAD,2022-12-20 04:37:21,15.08847383,0.000331,53.2168,156.1443,50.4703,309.6581,8.1343e-05,1.006e-05,0.0,0 STARLINK-3401,1 51465U 22010K   22354.19260526  .00001006  00000-0  81343-4 0  9993,2 51465  53.2168 156.1443 0003310  50.4703 309.6581 15.08847383 49864,6917.858,95.437,542.013,537.433,0.0
51465.0,STARLINK-3401,PAYLOAD,2022-12-20 20:31:11,15.0884693,0.0003366,53.2167,153.1712,50.3351,309.7938,0.00018214,2.612e-05,0.0,0 STARLINK-3401,1 51465U 22010K   22354.85499989  .00002612  00000-0  18214-3 0  9993,2 51465  53.2167 153.1712 0003366  50.3351 309.7938 15.08846930 49963,6917.859,95.437,542.053,537.396,0.0
51465.0,STARLINK-3401,PAYLOAD,2022-12-21 17:11:13,15.08837966,0.000342,53.2184,149.3038,53.526,306.6047,2.3875e-05,9.1e-07,0.0,0 STARLINK-3401,1 51465U 22010K   22355.71613008  .00000091  00000-0  23875-4 0  9998,2 51465  53.2184 149.3038 0003420  53.5260 306.6047 15.08837966 50097,6917.887,95.438,542.118,537.386,0.0
51465.0,STARLINK-3401,PAYLOAD,2022-12-21 20:22:00,15.08831529,0.0003333,53.2176,148.7084,53.287,306.8428,-3.6247e-05,-8.66e-06,0.0,0 STARLINK-3401,1 51465U 22010K   22355.84861560 -.00000866  00000-0 -36247-4 0  9999,2 51465  53.2176 148.7084 0003333  53.2870 306.8428 15.08831529 50116,6917.906,95.438,542.077,537.466,0.0
51465.0,STARLINK-3401,PAYLOAD,2022-12-22 10:40:27,15.08842935,0.0003317,53.2174,146.0346,50.3296,309.7988,-3.374e-05,-8.26e-06,0.0,0 STARLINK-3401,1 51465U 22010K   22356.44476823 -.00000826  00000-0 -33740-4 0  9991,2 51465  53.2174 146.0346 0003317  50.3296 309.7988 15.08842935 50204,6917.871,95.437,542.031,537.442,0.0
51465.0,STARLINK-3401,PAYLOAD,2022-12-22 17:02:00,15.08847224,0.0003336,53.2166,144.8451,50.8804,309.2485,4.6868e-06,-2.14e-06,0.0,0 STARLINK-3401,1 51465U 22010K   22356.70972346 -.00000214  00000-0  46868-5 0  9997,2 51465  53.2166 144.8451 0003336  50.8804 309.2485 15.08847224 50246,6917.858,95.437,542.031,537.4159999999998,0.0
51465.0,STARLINK-3401,PAYLOAD,2022-12-23 02:34:18,15.0884994,0.000338,53.2165,143.0611,50.90600000000001,309.2232,-2.2967e-05,-6.55e-06,0.0,0 STARLINK-3401,1 51465U 22010K   22357.10716112 -.00000655  00000-0 -22967-4 0  9992,2 51465  53.2165 143.0611 0003380  50.9060 309.2232 15.08849940 50302,6917.85,95.437,542.053,537.377,0.0
51465.0,STARLINK-3401,PAYLOAD,2022-12-23 08:55:51,15.08838098,0.0003302,53.2161,141.8721,50.5915,309.5369,6.0167e-05,6.69e-06,0.0,0 STARLINK-3401,1 51465U 22010K   22357.37212625  .00000669  00000-0  60167-4 0  9998,2 51465  53.2161 141.8721 0003302  50.5915 309.5369 15.08838098 50345,6917.886,95.438,542.035,537.467,0.0
51465.0,STARLINK-3401,PAYLOAD,2022-12-23 18:28:10,15.0883731,0.0003325,53.2165,140.0876,50.9624,309.1664,9.7657e-05,1.266e-05,0.0,0 STARLINK-3401,1 51465U 22010K   22357.76956697  .00001266  00000-0  97657-4 0  9993,2 51465  53.2165 140.0876 0003325  50.9624 309.1664 15.08837310 50404,6917.889,95.438,542.054,537.453,0.0
51465.0,STARLINK-3401,PAYLOAD,2022-12-24 02:25:05,15.08843476,0.0003339,53.2165,138.6008,51.5759,308.5533,0.00013044,1.788e-05,0.0,0 STARLINK-3401,1 51465U 22010K   22358.10076217  .00001788  00000-0  13044-3 0  9999,2 51465  53.2165 138.6008 0003339  51.5759 308.5533 15.08843476 50458,6917.87,95.437,542.045,537.425,0.0
51465.0,STARLINK-3401,PAYLOAD,2022-12-24 11:57:25,15.08840567,0.0003377,53.2162,136.8164,51.2794,308.85,5.0275e-06,-2.09e-06,0.0,0 STARLINK-3401,1 51465U 22010K   22358.49820737 -.00000209  00000-0  50275-5 0  9992,2 51465  53.2162 136.8164 0003377  51.2794 308.8500 15.08840567 50518,6917.879,95.438,542.08,537.4069999999998,0.0
51465.0,STARLINK-3401,PAYLOAD,2022-12-24 18:18:57,15.08842875,0.0003407,53.2162,135.627,52.4577,307.6724,2.3587e-05,8.7e-07,0.0,0 STARLINK-3401,1 51465U 22010K   22358.76316498  .00000087  00000-0  23587-4 0  9994,2 51465  53.2162 135.6270 0003407  52.4577 307.6724 15.08842875 50552,6917.871999999999,95.437,542.094,537.38,0.0
51465.0,STARLINK-3401,PAYLOAD,2022-12-25 10:12:49,15.08832753,0.0003486,53.2168,132.6526,50.6181,309.5119,3.6009e-05,2.84e-06,0.0,0 STARLINK-3401,1 51465U 22010K   22359.42557031  .00000284  00000-0  36009-4 0  9990,2 51465  53.2168 132.6526 0003486  50.6181 309.5119 15.08832753 50651,6917.903,95.438,542.179,537.356,0.0
51465.0,STARLINK-3401,PAYLOAD,2022-12-25 18:09:44,15.08835458,0.0003523,53.2166,131.1661,51.379,308.7517,1.8487e-05,5e-08,0.0,0 STARLINK-3401,1 51465U 22010K   22359.75676980  .00000005  00000-0  18487-4 0  9992,2 51465  53.2166 131.1661 0003523  51.3790 308.7517 15.08835458 50703,6917.894,95.438,542.196,537.322,0.0
51465.0,STARLINK-3401,PAYLOAD,2022-12-26 02:06:40,15.08828294,0.0003364,53.2172,129.6793,51.9008,308.2287,0.00017926,2.565e-05,0.0,0 STARLINK-3401,1 51465U 22010K   22360.08796995  .00002565  00000-0  17926-3 0  9998,2 51465  53.2172 129.6793 0003364  51.9008 308.2287 15.08828294 50753,6917.916,95.438,542.1080000000002,537.4540000000002,0.0
51465.0,STARLINK-3401,PAYLOAD,2022-12-26 18:00:32,15.08830531,0.0003335,53.2175,126.7062,51.04,309.0889,1.2727e-05,-8.6e-07,0.0,0 STARLINK-3401,1 51465U 22010K   22360.75037410 -.00000086  00000-0  12727-4 0  9994,2 51465  53.2175 126.7062 0003335  51.0400 309.0889 15.08830531 50853,6917.909000000002,95.438,542.081,537.467,0.0
51465.0,STARLINK-3401,PAYLOAD,2022-12-27 01:57:26,15.08865409,0.0003196,53.2173,125.2193,50.4251,309.7023,-0.00019437,-3.383e-05,0.0,0 STARLINK-3401,1 51465U 22010K   22361.08155725 -.00003383  00000-0 -19437-3 0  9999,2 51465  53.2173 125.2193 0003196  50.4251 309.7023 15.08865409 50907,6917.803000000001,95.436,541.879,537.457,0.0
51465.0,STARLINK-3401,PAYLOAD,2022-12-27 14:40:31,15.08850917,0.0003071,53.2178,122.8402,47.4148,312.7102,0.00019086,2.751e-05,0.0,0 STARLINK-3401,1 51465U 22010K   22361.61147237  .00002751  00000-0  19086-3 0  9993,2 51465  53.2178 122.8402 0003071  47.4148 312.7102 15.08850917 50989,6917.847,95.437,541.836,537.5880000000002,0.0
51465.0,STARLINK-3401,PAYLOAD,2022-12-27 17:51:17,15.08852661,0.000303,53.2178,122.246,43.9682,316.1551,0.00017235,2.456e-05,0.0,0 STARLINK-3401,1 51465U 22010K   22361.74395106  .00002456  00000-0  17235-3 0  9993,2 51465  53.2178 122.2460 0003030  43.9682 316.1551 15.08852661 51004,6917.842,95.437,541.803,537.611,0.0
51465.0,STARLINK-3401,PAYLOAD,2022-12-28 14:31:20,15.08821347,0.0002863999999999,53.2176,118.378,48.6084,311.5154,-3.5003000000000004e-05,-8.45e-06,0.0,0 STARLINK-3401,1 51465U 22010K   22362.60509356 -.00000845  00000-0 -35003-4 0  9999,2 51465  53.2176 118.3780 0002864  48.6084 311.5154 15.08821347 51134,6917.937,95.439,541.784,537.821,0.0
51465.0,STARLINK-3401,PAYLOAD,2022-12-29 14:22:07,15.08829999,0.0002924,53.217,113.9198,46.7907,313.3329,-0.00016684,-2.942e-05,0.0,0 STARLINK-3401,1 51465U 22010K   22363.59869830 -.00002942  00000-0 -16684-3 0  9997,2 51465  53.2170 113.9198 0002924  46.7907 313.3329 15.08829999 51283,6917.911,95.438,541.799,537.753,0.0
